CCSDS_OMM_VERS = 2.0
CREATION_DATE  = 
ORIGINATOR     = 

OBJECT_NAME    = STARLINK-36579
OBJECT_ID      = 2026-014K
CENTER_NAME    = EARTH
REF_FRAME      = TEME
TIME_SYSTEM    = UTC
MEAN_ELEMENT_THEORY = SGP/SGP4

EPOCH          = 2026-02-08T22:17:56.164992
MEAN_MOTION    = 15.77669846
ECCENTRICITY   = .00012006
INCLINATION    = 97.2841
RA_OF_ASC_NODE = 283.4083
ARG_OF_PERICENTER = 120.4358
MEAN_ANOMALY   = 239.7027

EPHEMERIS_TYPE = 0
CLASSIFICATION_TYPE = U
NORAD_CAT_ID   = 67541
ELEMENT_SET_NO = 999
REV_AT_EPOCH   = 404
BSTAR          = -.53418772E-2
MEAN_MOTION_DOT = -.809327E-2
MEAN_MOTION_DDOT = 0

CCSDS_OMM_VERS = 2.0
CREATION_DATE  = 
ORIGINATOR     = 

OBJECT_NAME    = STARLINK-35934
OBJECT_ID      = 2026-014L
CENTER_NAME    = EARTH
REF_FRAME      = TEME
TIME_SYSTEM    = UTC
MEAN_ELEMENT_THEORY = SGP/SGP4

EPOCH          = 2026-02-08T20:43:21.050112
MEAN_MOTION    = 15.80954108
ECCENTRICITY   = .00015206
INCLINATION    = 97.2847
RA_OF_ASC_NODE = 283.3435
ARG_OF_PERICENTER = 99.2293
MEAN_ANOMALY   = 260.9147

EPHEMERIS_TYPE = 0
CLASSIFICATION_TYPE = U
NORAD_CAT_ID   = 67542
ELEMENT_SET_NO = 999
REV_AT_EPOCH   = 402
BSTAR          = .15148216E-2
MEAN_MOTION_DOT = .302196E-2
MEAN_MOTION_DDOT = 0

CCSDS_OMM_VERS = 2.0
CREATION_DATE  = 
ORIGINATOR     = 

OBJECT_NAME    = STARLINK-36581
OBJECT_ID      = 2026-014M
CENTER_NAME    = EARTH
REF_FRAME      = TEME
TIME_SYSTEM    = UTC
MEAN_ELEMENT_THEORY = SGP/SGP4

EPOCH          = 2026-02-08T20:41:37.901472
MEAN_MOTION    = 15.80955914
ECCENTRICITY   = .00014571
INCLINATION    = 97.2846
RA_OF_ASC_NODE = 283.3443
ARG_OF_PERICENTER = 104.8116
MEAN_ANOMALY   = 255.3314

EPHEMERIS_TYPE = 0
CLASSIFICATION_TYPE = U
NORAD_CAT_ID   = 67543
ELEMENT_SET_NO = 999
REV_AT_EPOCH   = 403
BSTAR          = .16199007E-2
MEAN_MOTION_DOT = .324015E-2
MEAN_MOTION_DDOT = 0

CCSDS_OMM_VERS = 2.0
CREATION_DATE  = 
ORIGINATOR     = 

OBJECT_NAME    = STARLINK-36565
OBJECT_ID      = 2026-014N
CENTER_NAME    = EARTH
REF_FRAME      = TEME
TIME_SYSTEM    = UTC
MEAN_ELEMENT_THEORY = SGP/SGP4

EPOCH          = 2026-02-08T19:08:57.889536
MEAN_MOTION    = 15.80902869
ECCENTRICITY   = .00013429
INCLINATION    = 97.2851
RA_OF_ASC_NODE = 283.2787
ARG_OF_PERICENTER = 88.8975
MEAN_ANOMALY   = 271.2447

EPHEMERIS_TYPE = 0
CLASSIFICATION_TYPE = U
NORAD_CAT_ID   = 67544
ELEMENT_SET_NO = 999
REV_AT_EPOCH   = 402
BSTAR          = .65336434E-3
MEAN_MOTION_DOT = .127355E-2
MEAN_MOTION_DDOT = 0

CCSDS_OMM_VERS = 2.0
CREATION_DATE  = 
ORIGINATOR     = 

OBJECT_NAME    = STARLINK-36583
OBJECT_ID      = 2026-014P
CENTER_NAME    = EARTH
REF_FRAME      = TEME
TIME_SYSTEM    = UTC
MEAN_ELEMENT_THEORY = SGP/SGP4

EPOCH          = 2026-02-08T22:00:03.000096
MEAN_MOTION    = 15.75231328
ECCENTRICITY   = .00012335
INCLINATION    = 97.2842
RA_OF_ASC_NODE = 283.3844
ARG_OF_PERICENTER = 101.6741
MEAN_ANOMALY   = 167.8618

EPHEMERIS_TYPE = 0
CLASSIFICATION_TYPE = U
NORAD_CAT_ID   = 67545
ELEMENT_SET_NO = 999
REV_AT_EPOCH   = 406
BSTAR          = -.59029562E-3
MEAN_MOTION_DOT = -.87436E-3
MEAN_MOTION_DDOT = 0

CCSDS_OMM_VERS = 2.0
CREATION_DATE  = 
ORIGINATOR     = 

OBJECT_NAME    = STARLINK-36580
OBJECT_ID      = 2026-014Q
CENTER_NAME    = EARTH
REF_FRAME      = TEME
TIME_SYSTEM    = UTC
MEAN_ELEMENT_THEORY = SGP/SGP4

EPOCH          = 2026-02-08T20:36:37.171584
MEAN_MOTION    = 15.80783797
ECCENTRICITY   = .00015496
INCLINATION    = 97.2817
RA_OF_ASC_NODE = 283.3476
ARG_OF_PERICENTER = 348.1277
MEAN_ANOMALY   = 11.9955

EPHEMERIS_TYPE = 0
CLASSIFICATION_TYPE = U
NORAD_CAT_ID   = 67546
ELEMENT_SET_NO = 999
REV_AT_EPOCH   = 403
BSTAR          = .26271115E-3
MEAN_MOTION_DOT = .50397E-3
MEAN_MOTION_DDOT = 0

CCSDS_OMM_VERS = 2.0
CREATION_DATE  = 
ORIGINATOR     = 

OBJECT_NAME    = STARLINK-36584
OBJECT_ID      = 2026-014R
CENTER_NAME    = EARTH
REF_FRAME      = TEME
TIME_SYSTEM    = UTC
MEAN_ELEMENT_THEORY = SGP/SGP4

EPOCH          = 2026-02-08T20:35:12.846048
MEAN_MOTION    = 15.80916088
ECCENTRICITY   = .0001187
INCLINATION    = 97.2762
RA_OF_ASC_NODE = 283.3453
ARG_OF_PERICENTER = 93.3249
MEAN_ANOMALY   = 266.8155

EPHEMERIS_TYPE = 0
CLASSIFICATION_TYPE = U
NORAD_CAT_ID   = 67547
ELEMENT_SET_NO = 999
REV_AT_EPOCH   = 403
BSTAR          = .12498614E-2
MEAN_MOTION_DOT = .247303E-2
MEAN_MOTION_DDOT = 0

CCSDS_OMM_VERS = 2.0
CREATION_DATE  = 
ORIGINATOR     = 

OBJECT_NAME    = STARLINK-36586
OBJECT_ID      = 2026-014S
CENTER_NAME    = EARTH
REF_FRAME      = TEME
TIME_SYSTEM    = UTC
MEAN_ELEMENT_THEORY = SGP/SGP4

EPOCH          = 2026-02-08T20:33:14.853888
MEAN_MOTION    = 15.80886768
ECCENTRICITY   = .00014246
INCLINATION    = 97.2853
RA_OF_ASC_NODE = 283.3530
ARG_OF_PERICENTER = 99.7543
MEAN_ANOMALY   = 260.3886

EPHEMERIS_TYPE = 0
CLASSIFICATION_TYPE = U
NORAD_CAT_ID   = 67548
ELEMENT_SET_NO = 999
REV_AT_EPOCH   = 403
BSTAR          = .87409946E-3
MEAN_MOTION_DOT = .171167E-2
MEAN_MOTION_DDOT = 0

CCSDS_OMM_VERS = 2.0
CREATION_DATE  = 
ORIGINATOR     = 

OBJECT_NAME    = STARLINK-36564
OBJECT_ID      = 2026-014T
CENTER_NAME    = EARTH
REF_FRAME      = TEME
TIME_SYSTEM    = UTC
MEAN_ELEMENT_THEORY = SGP/SGP4

EPOCH          = 2026-02-08T22:00:03.000096
MEAN_MOTION    = 15.75209719
ECCENTRICITY   = .00016844
INCLINATION    = 97.2851
RA_OF_ASC_NODE = 283.4094
ARG_OF_PERICENTER = 104.5338
MEAN_ANOMALY   = 221.0104

EPHEMERIS_TYPE = 0
CLASSIFICATION_TYPE = U
NORAD_CAT_ID   = 67549
ELEMENT_SET_NO = 999
REV_AT_EPOCH   = 400
BSTAR          = -.47282116E-3
MEAN_MOTION_DOT = -.70141E-3
MEAN_MOTION_DDOT = 0

CCSDS_OMM_VERS = 2.0
CREATION_DATE  = 
ORIGINATOR     = 

OBJECT_NAME    = STARLINK-36563
OBJECT_ID      = 2026-014U
CENTER_NAME    = EARTH
REF_FRAME      = TEME
TIME_SYSTEM    = UTC
MEAN_ELEMENT_THEORY = SGP/SGP4

EPOCH          = 2026-02-08T22:00:03.000096
MEAN_MOTION    = 15.76414376
ECCENTRICITY   = .000156
INCLINATION    = 97.2853
RA_OF_ASC_NODE = 283.4174
ARG_OF_PERICENTER = 99.5806
MEAN_ANOMALY   = 249.1955

EPHEMERIS_TYPE = 0
CLASSIFICATION_TYPE = U
NORAD_CAT_ID   = 67550
ELEMENT_SET_NO = 999
REV_AT_EPOCH   = 406
BSTAR          = -.11025585E-1
MEAN_MOTION_DOT = -.1524987E-1
MEAN_MOTION_DDOT = 0

CCSDS_OMM_VERS = 2.0
CREATION_DATE  = 
ORIGINATOR     = 

OBJECT_NAME    = STARLINK-36566
OBJECT_ID      = 2026-014V
CENTER_NAME    = EARTH
REF_FRAME      = TEME
TIME_SYSTEM    = UTC
MEAN_ELEMENT_THEORY = SGP/SGP4

EPOCH          = 2026-02-08T22:00:03.000096
MEAN_MOTION    = 15.77771090
ECCENTRICITY   = .00014191
INCLINATION    = 97.2849
RA_OF_ASC_NODE = 283.4212
ARG_OF_PERICENTER = 103.3951
MEAN_ANOMALY   = 255.3056

EPHEMERIS_TYPE = 0
CLASSIFICATION_TYPE = U
NORAD_CAT_ID   = 67551
ELEMENT_SET_NO = 999
REV_AT_EPOCH   = 406
BSTAR          = -.13158459E-1
MEAN_MOTION_DOT = -.191514E-1
MEAN_MOTION_DDOT = 0

CCSDS_OMM_VERS = 2.0
CREATION_DATE  = 
ORIGINATOR     = 

OBJECT_NAME    = STARLINK-36567
OBJECT_ID      = 2026-014W
CENTER_NAME    = EARTH
REF_FRAME      = TEME
TIME_SYSTEM    = UTC
MEAN_ELEMENT_THEORY = SGP/SGP4

EPOCH          = 2026-02-08T22:00:03.000096
MEAN_MOTION    = 15.75189678
ECCENTRICITY   = .0001525
INCLINATION    = 97.2869
RA_OF_ASC_NODE = 283.3987
ARG_OF_PERICENTER = 97.2683
MEAN_ANOMALY   = 216.2746

EPHEMERIS_TYPE = 0
CLASSIFICATION_TYPE = U
NORAD_CAT_ID   = 67552
ELEMENT_SET_NO = 999
REV_AT_EPOCH   = 406
BSTAR          = -.98098368E-4
MEAN_MOTION_DOT = -.14737E-3
MEAN_MOTION_DDOT = 0

