STARLINK-36579          
1 67541U 26014K   26039.92912228 -.00809327  00000+0 -53419-2 0  9995
2 67541  97.2841 283.4083 0001200 120.4358 239.7027 15.77669846  4047
STARLINK-35934          
1 67542U 26014L   26039.86343808  .00302196  00000+0  15148-2 0  9998
2 67542  97.2847 283.3435 0001520  99.2293 260.9147 15.80954108  4029
STARLINK-36581          
1 67543U 26014M   26039.86224423  .00324015  00000+0  16199-2 0  9991
2 67543  97.2846 283.3443 0001457 104.8116 255.3314 15.80955914  4035
STARLINK-36565          
1 67544U 26014N   26039.79789224  .00127355  00000+0  65336-3 0  9995
2 67544  97.2851 283.2787 0001342  88.8975 271.2447 15.80902869  4023
STARLINK-36583          
1 67545U 26014P   26039.91670139 -.00087436  00000+0 -59030-3 0  9995
2 67545  97.2842 283.3844 0001233 101.6741 167.8618 15.75231328  4066
STARLINK-36580          
1 67546U 26014Q   26039.85876356  .00050397  00000+0  26271-3 0  9993
2 67546  97.2817 283.3476 0001549 348.1277  11.9955 15.80783797  4030
STARLINK-36584          
1 67547U 26014R   26039.85778757  .00247303  00000+0  12499-2 0  9991
2 67547  97.2762 283.3453 0001187  93.3249 266.8155 15.80916088  4035
STARLINK-36586          
1 67548U 26014S   26039.85642192  .00171167  00000+0  87410-3 0  9995
2 67548  97.2853 283.3530 0001424  99.7543 260.3886 15.80886768  4035
STARLINK-36564          
1 67549U 26014T   26039.91670139 -.00070141  00000+0 -47282-3 0  9990
2 67549  97.2851 283.4094 0001684 104.5338 221.0104 15.75209719  4008
STARLINK-36563          
1 67550U 26014U   26039.91670139 -.01524987  00000+0 -11026-1 0  9990
2 67550  97.2853 283.4174 0001560  99.5806 249.1955 15.76414376  4066
STARLINK-36566          
1 67551U 26014V   26039.91670139 -.01915140  00000+0 -13158-1 0  9994
2 67551  97.2849 283.4212 0001419 103.3951 255.3056 15.77771090  4064
STARLINK-36567          
1 67552U 26014W   26039.91670139 -.00014737  00000+0 -98098-4 0  9995
2 67552  97.2869 283.3987 0001525  97.2683 216.2746 15.75189678  4061
